STARLINK-31912          
1 59656U 24084C   26068.31599313  .00000797  00000+0  38474-4 0  9997
2 59656  43.0049  44.1145 0001097 270.0145  90.0581 15.27585524104314
FLOCK 4G-23             
1 62647U 25009AQ  26068.71663397  .00012440  00000+0  46816-3 0  9993
2 62647  97.3979 150.9478 0000905   7.2707 352.8545 15.27262579 63728
