[{"OBJECT_NAME":"STARLINK-31912","OBJECT_ID":"2024-084C","EPOCH":"2026-03-09T07:35:01.806432","MEAN_MOTION":15.27585524,"ECCENTRICITY":0.00010975,"INCLINATION":43.0049,"RA_OF_ASC_NODE":44.1145,"ARG_OF_PERICENTER":270.0145,"MEAN_ANOMALY":90.0581,"EPHEMERIS_TYPE":0,"CLASSIFICATION_TYPE":"U","NORAD_CAT_ID":59656,"ELEMENT_SET_NO":999,"REV_AT_EPOCH":10431,"BSTAR":3.8474178e-5,"MEAN_MOTION_DOT":7.97e-6,"MEAN_MOTION_DDOT":0},{"OBJECT_NAME":"FLOCK 4G-23","OBJECT_ID":"2025-009AQ","EPOCH":"2026-03-09T17:11:57.175872","MEAN_MOTION":15.27262579,"ECCENTRICITY":9.048e-5,"INCLINATION":97.3979,"RA_OF_ASC_NODE":150.9478,"ARG_OF_PERICENTER":7.2707,"MEAN_ANOMALY":352.8545,"EPHEMERIS_TYPE":0,"CLASSIFICATION_TYPE":"U","NORAD_CAT_ID":62647,"ELEMENT_SET_NO":999,"REV_AT_EPOCH":6372,"BSTAR":0.00046815788,"MEAN_MOTION_DOT":0.0001244,"MEAN_MOTION_DDOT":0}]
